[{"OBJECT_NAME":"STARLINK-31099","OBJECT_ID":"2024-011S","EPOCH":"2026-03-09T03:19:32.511936","MEAN_MOTION":15.30196831,"ECCENTRICITY":9.56e-5,"INCLINATION":53.1619,"RA_OF_ASC_NODE":16.3855,"ARG_OF_PERICENTER":100.9975,"MEAN_ANOMALY":259.1133,"EPHEMERIS_TYPE":0,"CLASSIFICATION_TYPE":"U","NORAD_CAT_ID":58781,"ELEMENT_SET_NO":999,"REV_AT_EPOCH":12018,"BSTAR":3.4553716e-5,"MEAN_MOTION_DOT":6.64e-6,"MEAN_MOTION_DDOT":0},{"OBJECT_NAME":"OBJECT K","OBJECT_ID":"2024-205K","EPOCH":"2026-03-09T22:22:01.331040","MEAN_MOTION":15.27932792,"ECCENTRICITY":0.00106729,"INCLINATION":97.417,"RA_OF_ASC_NODE":146.2172,"ARG_OF_PERICENTER":37.4736,"MEAN_ANOMALY":322.7246,"EPHEMERIS_TYPE":0,"CLASSIFICATION_TYPE":"U","NORAD_CAT_ID":61903,"ELEMENT_SET_NO":999,"REV_AT_EPOCH":7347,"BSTAR":0.00067315144,"MEAN_MOTION_DOT":0.00018331,"MEAN_MOTION_DDOT":0}]
